{
  "type": "FeatureCollection",
  "features": [
    {
      "type": "Feature",
      "properties": {
        "norad_id": 30646,
        "name": "FENGYUN 1C DEB",
        "group": "fengyun-1c-debris",
        "lat": 45.1807929849251,
        "lon": 10.643175283934822,
        "alt_km": 834.1297910847907,
        "timestamp": "2025-12-25T09:48:52.567919+00:00",
        "meta_object_name": "FENGYUN 1C DEB",
        "meta_object_id": "1999-025APD",
        "meta_epoch": "2025-12-24T13:09:29.372832",
        "meta_mean_motion": 14.0967936,
        "meta_eccentricity": 0.00476838,
        "meta_inclination": 98.6514,
        "meta_ra_of_asc_node": 18.6292,
        "meta_arg_of_pericenter": 358.6133,
        "meta_mean_anomaly": 1.4899,
        "meta_ephemeris_type": 0,
        "meta_classification_type": "U",
        "meta_norad_cat_id": 30646,
        "meta_element_set_no": 999,
        "meta_rev_at_epoch": 96771,
        "meta_bstar": 0.00065101121,
        "meta_mean_motion_dot": 1.112e-05,
        "meta_mean_motion_ddot": 0,
        "tle_line1": "1 30646U 99025APD 25358.54825663  .00001112  00000+0  65101-3 0  9996",
        "tle_line2": "2 30646  98.6514  18.6292 0047683 358.6133   1.4899 14.09679360967715"
      },
      "geometry": {
        "type": "Point",
        "coordinates": [
          10.643175283934822,
          45.1807929849251
        ]
      }
    },
    {
      "type": "Feature",
      "properties": {
        "norad_id": 30647,
        "name": "FENGYUN 1C DEB",
        "group": "fengyun-1c-debris",
        "lat": 56.598955116959054,
        "lon": 126.32872046478316,
        "alt_km": 677.5946102519592,
        "timestamp": "2025-12-25T09:48:52.567929+00:00",
        "meta_object_name": "FENGYUN 1C DEB",
        "meta_object_id": "1999-025APE",
        "meta_epoch": "2025-12-24T18:33:12.162816",
        "meta_mean_motion": 14.56688095,
        "meta_eccentricity": 0.00300454,
        "meta_inclination": 98.9904,
        "meta_ra_of_asc_node": 291.7515,
        "meta_arg_of_pericenter": 136.4235,
        "meta_mean_anomaly": 253.1803,
        "meta_ephemeris_type": 0,
        "meta_classification_type": "U",
        "meta_norad_cat_id": 30647,
        "meta_element_set_no": 999,
        "meta_rev_at_epoch": 98164,
        "meta_bstar": 0.0022614224,
        "meta_mean_motion_dot": 0.00010121,
        "meta_mean_motion_ddot": 0,
        "tle_line1": "1 30647U 99025APE 25358.77305744  .00010121  00000+0  22614-2 0  9996",
        "tle_line2": "2 30647  98.9904 291.7515 0030045 136.4235 253.1803 14.56688095981649"
      },
      "geometry": {
        "type": "Point",
        "coordinates": [
          126.32872046478316,
          56.598955116959054
        ]
      }
    },
    {
      "type": "Feature",
      "properties": {
        "norad_id": 30648,
        "name": "FENGYUN 1C DEB",
        "group": "fengyun-1c-debris",
        "lat": -66.62028148052887,
        "lon": -106.24425540355031,
        "alt_km": 760.54562931683,
        "timestamp": "2025-12-25T09:48:52.567939+00:00",
        "meta_object_name": "FENGYUN 1C DEB",
        "meta_object_id": "1999-025APF",
        "meta_epoch": "2025-12-24T18:26:44.375424",
        "meta_mean_motion": 14.48289532,
        "meta_eccentricity": 0.0033556,
        "meta_inclination": 98.6402,
        "meta_ra_of_asc_node": 93.6934,
        "meta_arg_of_pericenter": 92.0425,
        "meta_mean_anomaly": 59.081,
        "meta_ephemeris_type": 0,
        "meta_classification_type": "U",
        "meta_norad_cat_id": 30648,
        "meta_element_set_no": 999,
        "meta_rev_at_epoch": 98040,
        "meta_bstar": 0.0020392627,
        "meta_mean_motion_dot": 7.633e-05,
        "meta_mean_motion_ddot": 0,
        "tle_line1": "1 30648U 99025APF 25358.76856916  .00007633  00000+0  20393-2 0  9994",
        "tle_line2": "2 30648  98.6402  93.6934 0033556  92.0425  59.0810 14.48289532980400"
      },
      "geometry": {
        "type": "Point",
        "coordinates": [
          -106.24425540355031,
          -66.62028148052887
        ]
      }
    },
    {
      "type": "Feature",
      "properties": {
        "norad_id": 30649,
        "name": "FENGYUN 1C DEB",
        "group": "fengyun-1c-debris",
        "lat": -81.13902327056452,
        "lon": 178.92126153646785,
        "alt_km": 826.1580553249687,
        "timestamp": "2025-12-25T09:48:52.567949+00:00",
        "meta_object_name": "FENGYUN 1C DEB",
        "meta_object_id": "1999-025APG",
        "meta_epoch": "2025-12-24T18:08:30.795936",
        "meta_mean_motion": 14.29631494,
        "meta_eccentricity": 0.00508593,
        "meta_inclination": 98.8086,
        "meta_ra_of_asc_node": 94.1995,
        "meta_arg_of_pericenter": 137.4033,
        "meta_mean_anomaly": 14.0692,
        "meta_ephemeris_type": 0,
        "meta_classification_type": "U",
        "meta_norad_cat_id": 30649,
        "meta_element_set_no": 999,
        "meta_rev_at_epoch": 97235,
        "meta_bstar": 0.0017535237,
        "meta_mean_motion_dot": 4.512e-05,
        "meta_mean_motion_ddot": 0,
        "tle_line1": "1 30649U 99025APG 25358.75591199  .00004512  00000+0  17535-2 0  9990",
        "tle_line2": "2 30649  98.8086  94.1995 0050859 137.4033  14.0692 14.29631494972359"
      },
      "geometry": {
        "type": "Point",
        "coordinates": [
          178.92126153646785,
          -81.13902327056452
        ]
      }
    },
    {
      "type": "Feature",
      "properties": {
        "norad_id": 30650,
        "name": "FENGYUN 1C DEB",
        "group": "fengyun-1c-debris",
        "lat": -77.62705591862144,
        "lon": 88.02046072632528,
        "alt_km": 881.7096060853346,
        "timestamp": "2025-12-25T09:48:52.567959+00:00",
        "meta_object_name": "FENGYUN 1C DEB",
        "meta_object_id": "1999-025APH",
        "meta_epoch": "2025-12-24T22:53:24.080352",
        "meta_mean_motion": 14.14000626,
        "meta_eccentricity": 0.00723058,
        "meta_inclination": 99.2032,
        "meta_ra_of_asc_node": 39.9015,
        "meta_arg_of_pericenter": 155.9173,
        "meta_mean_anomaly": 325.8816,
        "meta_ephemeris_type": 0,
        "meta_classification_type": "U",
        "meta_norad_cat_id": 30650,
        "meta_element_set_no": 999,
        "meta_rev_at_epoch": 96471,
        "meta_bstar": 0.0014383001,
        "meta_mean_motion_dot": 2.756e-05,
        "meta_mean_motion_ddot": 0,
        "tle_line1": "1 30650U 99025APH 25358.95375093  .00002756  00000+0  14383-2 0  9993",
        "tle_line2": "2 30650  99.2032  39.9015 0072305 155.9173 325.8816 14.14000626964710"
      },
      "geometry": {
        "type": "Point",
        "coordinates": [
          88.02046072632528,
          -77.62705591862144
        ]
      }
    },
    {
      "type": "Feature",
      "properties": {
        "norad_id": 30652,
        "name": "FENGYUN 1C DEB",
        "group": "fengyun-1c-debris",
        "lat": 57.76444695145212,
        "lon": 18.003587579863726,
        "alt_km": 866.6534560501477,
        "timestamp": "2025-12-25T09:48:52.567969+00:00",
        "meta_object_name": "FENGYUN 1C DEB",
        "meta_object_id": "1999-025APJ",
        "meta_epoch": "2025-12-24T13:40:59.760768",
        "meta_mean_motion": 14.07808772,
        "meta_eccentricity": 0.00076215,
        "meta_inclination": 98.7839,
        "meta_ra_of_asc_node": 31.3809,
        "meta_arg_of_pericenter": 228.1655,
        "meta_mean_anomaly": 261.9722,
        "meta_ephemeris_type": 0,
        "meta_classification_type": "U",
        "meta_norad_cat_id": 30652,
        "meta_element_set_no": 999,
        "meta_rev_at_epoch": 96860,
        "meta_bstar": 9.1710403e-05,
        "meta_mean_motion_dot": 1.12e-06,
        "meta_mean_motion_ddot": 0,
        "tle_line1": "1 30652U 99025APJ 25358.57013612  .00000112  00000+0  91710-4 0  9994",
        "tle_line2": "2 30652  98.7839  31.3809 0007621 228.1655 261.9722 14.07808772968603"
      },
      "geometry": {
        "type": "Point",
        "coordinates": [
          18.003587579863726,
          57.76444695145212
        ]
      }
    },
    {
      "type": "Feature",
      "properties": {
        "norad_id": 30654,
        "name": "FENGYUN 1C DEB",
        "group": "fengyun-1c-debris",
        "lat": 48.593519776651576,
        "lon": 113.78398664934589,
        "alt_km": 821.1635192762706,
        "timestamp": "2025-12-25T09:48:52.567979+00:00",
        "meta_object_name": "FENGYUN 1C DEB",
        "meta_object_id": "1999-025APL",
        "meta_epoch": "2025-12-24T17:57:15.357024",
        "meta_mean_motion": 14.17147667,
        "meta_eccentricity": 0.00358888,
        "meta_inclination": 99.2426,
        "meta_ra_of_asc_node": 282.4565,
        "meta_arg_of_pericenter": 63.4552,
        "meta_mean_anomaly": 297.0293,
        "meta_ephemeris_type": 0,
        "meta_classification_type": "U",
        "meta_norad_cat_id": 30654,
        "meta_element_set_no": 999,
        "meta_rev_at_epoch": 96850,
        "meta_bstar": 0.0010921707,
        "meta_mean_motion_dot": 2.168e-05,
        "meta_mean_motion_ddot": 0,
        "tle_line1": "1 30654U 99025APL 25358.74809441  .00002168  00000+0  10922-2 0  9995",
        "tle_line2": "2 30654  99.2426 282.4565 0035888  63.4552 297.0293 14.17147667968505"
      },
      "geometry": {
        "type": "Point",
        "coordinates": [
          113.78398664934589,
          48.593519776651576
        ]
      }
    }
  ]
}